{
"type": "FeatureCollection",
"name": "7202 AOI",
"crs": { "type": "name", "properties": { "name": "urn:ogc:def:crs:OGC:1.3:CRS84" } },
"features": [
{ "type": "Feature", "id": 0, "properties": { "Name": "smaller aoi", "Description": "" }, "geometry": { "type": "Polygon", "coordinates": [ [ [ -99.268905052179022, 56.632944845761862, 0.0 ], [ -97.244747061629354, 56.635196141515543, 0.0 ], [ -97.225362177795191, 57.762321793984192, 0.0 ], [ -99.279185640504906, 57.75077856432717, 0.0 ], [ -99.268905052179022, 56.632944845761862, 0.0 ] ] ] } }
]
}
